#dP2021  6 26  0  0  0.00000000      97 __u+U IGS14 FIT  IAC
## 2163 518400.00000000   900.00000000 59391 0.0000000000000
+  122   C01C02C03C05C06C07C08C09C10C11C12C13C14C16C19C20C21
+        C22C23C24C25C26C27C28C29C30C32C33C34C35C36C37C38C39
+        C40C41C42C43C44C45C46C60E01E02E03E04E05E07E08E09E11
+        E12E13E14E15E18E19E21E24E25E26E27E30E31E33E36G01G02
+        G03G04G05G06G07G08G09G10G12G13G14G15G16G17G18G19G20
+        G21G22G23G24G25G26G27G28G29G30G31G32J01J02J03J07R01
+        R02R03R04R05R07R08R09R11R12R13R14R15R16R17R18R19R20
+        R21R22R24  0  0  0  0  0  0  0  0  0  0  0  0  0  0
++        14 13 13 13  9 11  9  8  9  8  8  9  9  9  7  7  7
++         7  7  7  7  7  7  7  7  7  7  7  7  7  7  7  8  8
++         8  8  8  8  7  7  7 13  4  4  4  5  4  4  4  4  5
++         4  4  5  4  4  4  4  4  4  4  4  4  4  4  5  3  3
++         3  3  3  3  3  3  3  3  3  3  3  3  4  4  3  4  3
++         3  3  3  3  3  3  3  4  3  3  4  3  9  8  8 16  7
++         5  5  5  5  6  6  5  7  5  7  5  6  7  5  5  7  7
++         6  7  6  0  0  0  0  0  0  0  0  0  0  0  0  0  0
%c M  cc GPS ccc cccc cccc cccc cccc ccccc ccccc ccccc ccccc
%c cc cc ccc ccc cccc cccc cccc cccc ccccc ccccc ccccc ccccc
%f  1.2500000  1.025000000  0.00000000000  0.000000000000000
%f  0.0000000  0.000000000  0.00000000000  0.000000000000000
%i    0    0    0    0      0      0      0      0         0
%i    0    0    0    0      0      0      0      0         0
/* INFORMATION & ANALYSIS CENTER (IAC)            FINAL DATA
/* S/V CLOCKS ARE ALIGNED TO GNSS TIME                      
/* G:C1WC2W R:C1PC2P E:C1XC5X C:C2IC6I J:C1CC2S             
/* PCV:IGS14_2148 OL/AL:FES2004  NONE     YN ORB:CoN CLK:CoN
*  2021 06 26 19  0  0.00000000
PC01 -34338.151272  24515.582283    -47.957268 999999.999999
PC02   4437.845659  41932.889555   -501.290599    559.573951
PC03 -14716.064953  39524.551453  -1146.934500 999999.999999
PC05  21932.315367  36042.833148   -225.121711    -71.836228
PC06 -23048.175290  26635.790803  23295.128655    550.913578
PC07 -13074.965016  38351.829130  12903.887674     31.548167
PC08  -6027.556418  21541.409697 -35601.441377   -897.739969
PC09  -8088.360005  26636.270024  31857.326289    418.667933
PC10  -3132.503412  42302.254691    728.632976    -25.355083
PC11 -10863.959365 -12439.954304  22554.422117    422.840107
PC12   9544.946459 -16531.943108  20372.848851    830.943358
PC13   5324.539482  28202.507489 -30701.469922    314.585455
PC14  -5832.505380 -22264.322568 -15710.998730    862.558171
PC16 -21104.148016  26791.139516  24783.224524   -924.278847
PC19  11697.081667  13924.875266  21201.347153    887.034101
PC20    224.984200  26338.773127   9289.115318   -863.327325
PC21  12046.372539 -23552.595693   8860.221488   -935.075208
PC22  16772.488285  -6924.274125  21197.173443   -949.013963
PC23 -21304.827726  -2976.828491  17784.632949   -949.040773
PC24  -8128.066478 -22416.145344 -14514.889217   -911.021252
PC25 -21755.994301 -17236.449911   2979.684070   -894.984634
PC26   8036.553194 -14444.154527 -22491.427795    887.130187
PC27 -18626.571659  15215.664434 -14162.781428    554.696539
PC28 -27237.372293   5373.228502   2866.792955    -57.671525
PC29  20077.431535   6858.398474 -18140.341437    411.430073
PC30    843.192193  16216.724048 -22702.328374    472.022229
PC32 -11853.027462  23676.687292  -8819.197207   -924.249339
PC33 -11754.443687 -13907.023921 -21131.857543   -938.574000
PC34  -1640.798816 -16058.003768  22750.890094   -641.536096
PC35  27068.151196  -6056.867485  -3233.359674   -214.921545
PC36  21193.125518  17968.365411  -2586.540180   -729.188789
PC37  -9226.067227  13534.868895  22613.542863   -870.538649
PC38  -5382.561183  24458.490545 -33880.237847    157.805601
PC39 -18221.619450  28197.278337  25429.226534     32.006363
PC40  -9991.864610  40811.251219   4405.280226    174.786261
PC41 -16760.186910   6666.613591 -21242.128496   -951.734209
PC42    316.296914 -26551.926379  -8502.886313   -915.230424
PC43 -19641.599094  -7383.262170  18374.361020   -794.370752
PC44  18305.814025 -15839.175574  13898.368172    259.410804
PC45  21181.629809   2879.052336 -17921.013151    477.686877
PC46   9112.533952  22470.241344  13796.772527    206.221198
PC60   7263.582731  41526.811737  -1512.748901     -0.661858
PE01   2132.938287 -25471.461549 -14923.426383  -1137.584045
PE02  -2045.189024  25531.722325  14829.193390    228.825550
PE03 -12848.141956  24881.720079   9621.863472   -446.232274
PE04  -4515.354107 -18830.250707 -22375.481543   -800.767319
PE05 -22940.418183  16402.365286  -8994.063388   -269.849839
PE07  19551.581704   1557.517164  22177.267882   -554.585345
PE08   4808.561974  18513.538899  22600.934094   5979.742714
PE09 -19562.714341  -1163.584680 -22179.985979   5620.400634
PE11 -28465.626220  -7513.784389   2978.649627   5799.564649
PE12 -14901.030494 -16110.353000  19848.079583   5140.574510
PE13  28380.110595   7689.269078  -3440.757895    418.254965
PE14 -22159.928364   2117.744290  13130.926090  -1479.772950
PE15  15016.342526  15997.639964 -19871.434846    806.679863
PE18  19741.022944   8787.496729 -22104.102535  -1621.163340
PE19  14616.581931 -24591.501314  -7590.511574    312.086397
PE21  13945.088697  -9762.938754 -24213.322812   -672.897234
PE24 -18131.327066 -13215.638927  19307.597197   -975.987555
PE25 -14046.181322   9544.241693  24252.657418   -538.146392
PE26  24516.684681  -5661.715237  15584.755412   1647.785531
PE27  18221.013941  12237.592220 -19851.884119    -62.795529
PE30  11067.403275  27296.879627  -2882.966667   2831.834390
PE31 -11768.657579 -26882.866142   3872.110079   -482.625206
PE33   7168.210500 -14868.129598  24568.482896   -468.568110
PE36 -25001.141789   5134.942001 -14989.522610   -226.323393
PG01  21243.837129  14404.620524  -7764.047771    646.367271
PG02    407.522315 -15879.730693  21934.624056   -615.316735
PG03  12240.721190  19114.695473  13794.617767   -203.166081
PG04  13919.880987   8141.973796  21123.654251   -200.966999
PG05  -6089.174072 -25682.230275  -2075.946826    -46.123461
PG06  12508.413243 -10131.027927  21195.188774     31.948812
PG07  25411.829242   6087.415405  -5696.890383    188.118082
PG08   4574.507943  15184.479978 -21268.596160    -26.588947
PG09  21133.671814  -2671.907437  15821.350278   -352.974111
PG10 -12409.948895  11462.326623 -20307.527719   -150.197524
PG12 -10210.968246 -20791.875233  12867.430502    -60.412557
PG13   4963.117799 -18047.662590 -18921.830127    149.952105
PG14  13125.414239 -11356.039934 -20102.321658     60.991650
PG15  -7096.243443 -15073.423415 -20999.393259   -139.664202
PG16   -613.556604  26122.961648   2838.223660   -347.570968
PG17  22723.420401 -13355.985366  -2854.810701    464.608900
PG18 -24679.608940  -3678.179402  -9222.076755    344.681224
PG19  19938.888346 -16559.540278   5181.631551     18.541651
PG20  -4676.226550 -25988.685708   3923.036914    520.776310
PG21  16690.449205  15334.360488 -13539.228021    127.562226
PG22  10206.360396  24016.370325   5684.381961   -578.526976
PG23 -15392.151600  -1132.376241 -21642.378060     92.237603
PG24 -18400.931505 -15351.093962 -12120.856986    150.057311
PG25 -15111.319704  -9568.371006  19457.195265    162.964948
PG26  -5596.274099  22189.318040  13188.808042    103.314543
PG27  -6467.999655  19512.999216 -16788.367516   -153.512727
PG28  10466.603383 -17521.296564 -16552.649596    548.004764
PG29 -20584.716873    387.423876  16759.735130   -370.613004
PG30  20554.907521  -4222.293579 -16352.930252   -443.760713
PG31 -10875.705334  11638.048393  21227.438026   -125.296141
PG32 -21122.044677  15909.721532   -970.980913     16.919711
PJ01 -25562.814272  31573.705666  -6820.276356   -403.397272
PJ02 -25319.177367  23425.431011  29213.843761     -0.442337
PJ03 -33830.586413  20173.162378 -10204.140482     -9.232553
PJ07 -25352.952781  33701.227839      2.826138     -0.030656
PR01   7602.994536 -23822.811287  -4987.161244     81.459098
PR02  -4540.508451 -13761.281430 -20963.037255    483.832546
PR03 -12959.221305   3704.771998 -21599.072946     38.399768
PR04 -13836.847072  18876.402413 -10107.667657     93.072573
PR05  -7156.170478  23443.070314   7040.726245     74.272769
PR07  13202.100594  -4426.118276  21423.081101    -42.218762
PR08  13896.045191 -18875.077965  10146.275920    -59.689029
PR09  15872.977153  19923.443643  -1935.365713     -0.108391
PR11   7957.448176  -7507.105342 -23029.290014    -15.676832
PR12  -5616.259302 -19900.819021 -14917.692376    240.417932
PR13 -15602.348155 -20139.669883   1217.958289    -56.871918
PR14 -16504.283607  -8306.704394  17591.510444     65.790832
PR15  -7788.505679   7971.463750  22967.731448    103.025497
PR16   6698.933819  20126.051118  14054.357057    -16.979019
PR17 -25079.025417    160.804904   4769.499067    435.998632
PR18 -21302.101660   7252.711357 -11955.739685     81.383940
PR19  -7481.536316  10308.923129 -22108.146930   -149.265387
PR20  14133.832301   7914.550687 -19719.263934    -51.520022
PR21  25240.004122   -655.631791  -3537.964704   -219.456294
PR22  20800.639691  -7444.701880  12812.812864   -119.665284
PR24 -14924.394371  -7849.658670  19153.591191     48.092352
EOF
